1 45419U 20019BM  22365.46598336  .00000876  00000-0  77662-4 0  9990
2 45419  53.0548 353.0221 0001805  59.1116 301.0050 15.06424880153997
1 45419U 20019BM  22365.46598336  .00000876  00000-0  77662-4 0  9990
2 45419  53.0548 353.0221 0001805  59.1116 301.0050 15.06424880153997
1 45419U 20019BM  22365.66503521  .00004568  00000-0  32528-3 0  9997
2 45419  53.0537 352.1275 0001877  56.0454 304.0713 15.06410656154024
1 45419U 20019BM  22365.66503521  .00004568  00000-0  32528-3 0  9997
2 45419  53.0537 352.1275 0001877  56.0454 304.0713 15.06410656154024
1 45419U 20019BM  23001.12946540 -.00001064  00000-0 -52528-4 0  9991
2 45419  53.0543 350.0443 0001742  58.9009 301.2150 15.06402186154093
1 45419U 20019BM  23001.39485993 -.00003815  00000-0 -23741-3 0  9990
2 45419  53.0541 348.8545 0001847  52.2428 307.8728 15.06388763154139
1 45419U 20019BM  23001.39485993 -.00003815  00000-0 -23741-3 0  9990
2 45419  53.0541 348.8545 0001847  52.2428 307.8728 15.06388763154139
1 45419U 20019BM  23001.66026451  .00000446  00000-0  48866-4 0  9991
2 45419  53.0549 347.6629 0001663  56.7713 303.3435 15.06371963154173
1 45419U 20019BM  23002.45640861  .00000100  00000-0  25632-4 0  9999
2 45419  53.0547 344.0876 0001666  58.3763 301.7388 15.06401529154296
1 45419U 20019BM  23002.45640861  .00000100  00000-0  25632-4 0  9999
2 45419  53.0547 344.0876 0001666  58.3763 301.7388 15.06401529154296
1 45419U 20019BM  23002.65544482 -.00000099  00000-0  12276-4 0  9991
2 45419  53.0547 343.1935 0001730  57.2313 302.8843 15.06407846154323
1 45419U 20019BM  23003.45161397  .00004299  00000-0  30730-3 0  9999
2 45419  53.0541 339.6192 0001753  55.7535 304.3620 15.06400441154443
1 45419U 20019BM  23003.65065850  .00002935  00000-0  21589-3 0  9995
2 45419  53.0538 338.7248 0001796  55.7623 304.3536 15.06393933154472
1 45419U 20019BM  23004.18143245  .00001129  00000-0  94665-4 0  9999
2 45419  53.0538 336.3424 0001568  54.1527 305.9607 15.06396996154552
1 45419U 20019BM  23004.64585772  .00001876  00000-0  14479-3 0  9998
2 45419  53.0535 334.2573 0001476  55.0242 305.0885 15.06401854154620
1 45419U 20019BM  23005.30931766  .00005463  00000-0  38516-3 0  9994
2 45419  53.0531 331.2804 0001619  52.0910 308.0225 15.06416910154729
1 45419U 20019BM  23005.37566498  .00005062  00000-0  35830-3 0  9998
2 45419  53.0534 330.9820 0001684  56.8690 303.2460 15.06415649154732
1 45419U 20019BM  23006.23817568 -.00004361  00000-0 -27407-3 0  9995
2 45419  53.0537 327.1091 0001602  54.0044 306.1093 15.06392476154866
1 45419U 20019BM  23006.90165355 -.00004738  00000-0 -29949-3 0  9990
2 45419  53.0541 324.1317 0001665  57.9925 302.1226 15.06384997154962
1 45419U 20019BM  23007.23338477  .00001924  00000-0  14804-3 0  9990
2 45419  53.0540 322.6419 0001680  59.9642 300.1514 15.06400181155011
1 45419U 20019BM  23007.36608120  .00012126  00000-0  83145-3 0  9999
2 45419  53.0541 322.0462 0001675  58.2284 301.8868 15.06404530155036
1 45419U 20019BM  23007.83051471  .00004267  00000-0  30522-3 0  9990
2 45419  53.0542 319.9618 0002115  58.0190 302.1005 15.06394551155105
1 45419U 20019BM  23007.83051471  .00004267  00000-0  30522-3 0  9990
2 45419  53.0542 319.9618 0002115  58.0190 302.1005 15.06394551155105
1 45419U 20019BM  23008.29494499 -.00000421  00000-0 -93523-5 0  9994
2 45419  53.0542 317.8765 0001641  64.0337 296.0821 15.06393009155179
1 45419U 20019BM  23008.29494499 -.00000421  00000-0 -93523-5 0  9994
2 45419  53.0542 317.8765 0001641  64.0337 296.0821 15.06393009155179
1 45419U 20019BM  23008.89206369  .00003810  00000-0  27448-3 0  9991
2 45419  53.0542 315.1960 0001791  62.3285 297.7885 15.06404263155269
1 45419U 20019BM  23009.22378532 -.00006579  00000-0 -42294-3 0  9994
2 45419  53.0543 313.7068 0001512  63.0164 297.0979 15.06420918155316
1 45419U 20019BM  23009.55552881  .00004591  00000-0  32685-3 0  9994
2 45419  53.0542 312.2178 0001775  64.7847 295.3326 15.06409192155361
1 45419U 20019BM  23009.55552881  .00004591  00000-0  32685-3 0  9994
2 45419  53.0542 312.2178 0001775  64.7847 295.3326 15.06409192155361
1 45419U 20019BM  23010.21899911  .00001733  00000-0  13521-3 0  9990
2 45419  53.0540 309.2388 0001601  67.4217 292.6941 15.06401030155464
1 45419U 20019BM  23010.55073282  .00000918  00000-0  80540-4 0  9992
2 45419  53.0540 307.7501 0001612  66.5412 293.5746 15.06400721155518
1 45419U 20019BM  23010.81611676  .00002295  00000-0  17289-3 0  9995
2 45419  53.0535 306.5576 0001553  68.9211 291.1944 15.06406551155553
1 45419U 20019BM  23011.21418747  .00011189  00000-0  76824-3 0  9996
2 45419  53.0532 304.7709 0001625  69.9173 290.1991 15.06430369155618
1 45419U 20019BM  23011.21418747  .00011189  00000-0  76824-3 0  9996
2 45419  53.0532 304.7709 0001625  69.9173 290.1991 15.06430369155618
1 45419U 20019BM  23012.20941045  .00004776  00000-0  33943-3 0  9997
2 45419  53.0532 300.3037 0001626  90.5836 269.5340 15.06384719155762
1 45419U 20019BM  23012.80654272  .00007560  00000-0  52616-3 0  9998
2 45419  53.0535 297.6234 0001765  91.3260 268.7931 15.06381031155857
1 45419U 20019BM  23012.93923484  .00008499  00000-0  58892-3 0  9990
2 45419  53.0542 297.0316 0001890 105.3451 254.7747 15.06390159155870
1 45419U 20019BM  23013.07192901  .00014764  00000-0  10080-2 0  9996
2 45419  53.0532 296.4327 0001655  95.7295 264.3882 15.06397944155899
1 45419U 20019BM  23013.47001048  .00012131  00000-0  83184-3 0  9993
2 45419  53.0525 294.6463 0001619  99.7997 260.3175 15.06402271155953
1 45419U 20019BM  23013.86809379  .00005880  00000-0  41332-3 0  9991
2 45419  53.0530 292.8579 0001667  85.5949 274.5231 15.06397552156013
1 45419U 20019BM  23014.19982348  .00014711  00000-0  10040-2 0  9990
2 45419  53.0531 291.3686 0001498  89.7580 270.3581 15.06415256156065
1 45419U 20019BM  23014.46521448  .00006089  00000-0  42732-3 0  9993
2 45419  53.0531 290.1760 0001897  88.1146 272.0060 15.06401338156101
1 45419U 20019BM  23015.46041333  .00007730  00000-0  53716-3 0  9992
2 45419  53.0527 285.7081 0002046  89.7367 270.3857 15.06409852156251
1 45419U 20019BM  23015.92483794  .00004860  00000-0  34483-3 0  9995
2 45419  53.0566 283.6215 0001874  91.0313 269.0891 15.06410520156320
1 45419U 20019BM  23016.12387531  .00028897  00000-0  19500-2 0  9998
2 45419  53.0526 282.7299 0001344  93.0727 267.0416 15.06417025156352
1 45419U 20019BM  23016.45561691 -.00003196  00000-0 -19576-3 0  9996
2 45419  53.0530 281.2403 0001994  83.6061 276.5155 15.06391977156403
1 45419U 20019BM  23016.45561691 -.00003196  00000-0 -19576-3 0  9996
2 45419  53.0530 281.2403 0001994  83.6061 276.5155 15.06391977156403
1 45419U 20019BM  23016.85370486 -.00007178  00000-0 -46377-3 0  9993
2 45419  53.0520 279.4539 0001547  86.1284 273.9882 15.06375073156463
1 45419U 20019BM  23016.85370486 -.00007178  00000-0 -46377-3 0  9993
2 45419  53.0520 279.4539 0001547  86.1284 273.9882 15.06375073156463
1 45419U 20019BM  23017.45083220  .00006900  00000-0  48182-3 0  9993
2 45419  53.0519 276.7736 0001602  83.6685 276.4486 15.06389547156558
1 45419U 20019BM  23017.45083220  .00006900  00000-0  48182-3 0  9993
2 45419  53.0519 276.7736 0001602  83.6685 276.4486 15.06389547156558
1 45419U 20019BM  23018.11429728  .00023679  00000-0  16022-2 0  9993
2 45419  53.0525 273.7954 0001416  79.4326 280.6823 15.06424048156651
1 45419U 20019BM  23018.11429728  .00023679  00000-0  16022-2 0  9993
2 45419  53.0525 273.7954 0001416  79.4326 280.6823 15.06424048156651
1 45419U 20019BM  23018.91045448  .00022003  00000-0  14904-2 0  9991
2 45419  53.0521 270.2199 0001137  69.7827 290.3284 15.06426328156773
1 45419U 20019BM  23018.91045448  .00022003  00000-0  14904-2 0  9991
2 45419  53.0521 270.2199 0001137  69.7827 290.3284 15.06426328156773
1 45419U 20019BM  23019.10949179  .00013113  00000-0  89697-3 0  9991
2 45419  53.0526 269.3258 0001323  73.0722 287.0412 15.06425310156802
1 45419U 20019BM  23019.10949179  .00013113  00000-0  89697-3 0  9991
2 45419  53.0526 269.3258 0001323  73.0722 287.0412 15.06425310156802
1 45419U 20019BM  23020.10470460  .00009175  00000-0  63415-3 0  9998
2 45419  53.0528 264.8594 0001297  91.4999 268.6139 15.06392016156950
1 45419U 20019BM  23020.37009306  .00008551  00000-0  59237-3 0  9998
2 45419  53.0527 263.6678 0001203  90.7956 269.3170 15.06393710156990
1 45419U 20019BM  23021.36529235  .00006871  00000-0  47960-3 0  9999
2 45419  53.0518 259.2006 0001159 104.1909 255.9208 15.06407045157142
1 45419U 20019BM  23022.09510430  .00004164  00000-0  29816-3 0  9990
2 45419  53.0510 255.9231 0001150 101.1415 258.9704 15.06409188157253
1 45419U 20019BM  23022.36049482  .00000723  00000-0  67414-4 0  9998
2 45419  53.0512 254.7290 0001090  92.6540 267.4574 15.06398846157295
1 45419U 20019BM  23023.02396771 -.00001205  00000-0 -62062-4 0  9990
2 45419  53.0512 251.7511 0001102  96.3190 263.7924 15.06395148157395
1 45419U 20019BM  23024.41725018  .00002168  00000-0  16438-3 0  9996
2 45419  53.0516 245.4967 0000961  99.2196 260.8901 15.06400547157601
1 45419U 20019BM  23025.41245427  .00000732  00000-0  68011-4 0  9998
2 45419  53.0517 241.0288 0001026 109.4651 250.6449 15.06397085157755
1 45419U 20019BM  23025.41245427  .00000732  00000-0  68011-4 0  9998
2 45419  53.0517 241.0288 0001026 109.4651 250.6449 15.06397085157755
1 45419U 20019BM  23025.81053882  .00000421  00000-0  47126-4 0  9993
2 45419  53.0527 239.2419 0001037 105.8765 254.2338 15.06395329157812
1 45419U 20019BM  23026.54034793 -.00000438  00000-0 -10539-4 0  9992
2 45419  53.0531 235.9675 0000951  90.1780 269.9318 15.06408164157926
1 45419U 20019BM  23026.54034793 -.00000438  00000-0 -10539-4 0  9992
2 45419  53.0531 235.9675 0000951  90.1780 269.9318 15.06408164157926
1 45419U 20019BM  23026.87208176  .00002114  00000-0  16072-3 0  9994
2 45419  53.0531 234.4783 0000999  88.0538 272.0565 15.06403779157970
1 45419U 20019BM  23027.80094525  .00001330  00000-0  10815-3 0  9997
2 45419  53.0529 230.3072 0001120 100.8991 259.2124 15.06393572158110
1 45419U 20019BM  23027.86729363  .00001198  00000-0  99339-4 0  9999
2 45419  53.0529 230.0100 0001105  91.9517 268.1599 15.06392899158123
1 45419U 20019BM  23027.99998572  .00000920  00000-0  80653-4 0  9994
2 45419  53.0529 229.4134 0001157  94.9747 265.1374 15.06395633158146
1 45419U 20019BM  23028.86248890  .00000795  00000-0  72252-4 0  9998
2 45419  53.0534 225.5419 0001130  90.4479 269.6639 15.06403388158273
1 45419U 20019BM  23028.86248890  .00000795  00000-0  72252-4 0  9998
2 45419  53.0534 225.5419 0001130  90.4479 269.6639 15.06403388158273
1 45419U 20019BM  23029.52596444  .00000820  00000-0  73970-4 0  9990
2 45419  53.0532 222.5629 0001198  88.0999 272.0127 15.06393143158373
1 45419U 20019BM  23029.79135391  .00000989  00000-0  85320-4 0  9997
2 45419  53.0542 221.3725 0001383  74.1939 285.9202 15.06391186158411
1 45419U 20019BM  23030.52116343  .00000503  00000-0  52651-4 0  9999
2 45419  53.0538 218.0960 0001230  82.4440 277.6689 15.06400939158526
1 45419U 20019BM  23030.78654787  .00000848  00000-0  75819-4 0  9999
2 45419  53.0539 216.9047 0001245  82.8707 277.2423 15.06403741158566
1 45419U 20019BM  23030.78654787  .00000848  00000-0  75819-4 0  9999
2 45419  53.0539 216.9047 0001245  82.8707 277.2423 15.06403741158566
1 45419U 20019BM  23031.51636728  .00001044  00000-0  88978-4 0  9995
2 45419  53.0537 213.6287 0001269  80.2336 279.8796 15.06396490158675
1 45419U 20019BM  23031.51636728  .00001044  00000-0  88978-4 0  9995
2 45419  53.0537 213.6287 0001269  80.2336 279.8796 15.06396490158675
1 45419U 20019BM  23031.78175431  .00000939  00000-0  81950-4 0  9998
2 45419  53.0533 212.4360 0001259  84.2026 275.9106 15.06397122158719
